[{"OBJECT_NAME":"STARLINK-5562","OBJECT_ID":"2023-058V","EPOCH":"2026-03-09T22:09:34.119648","MEAN_MOTION":15.01261223,"ECCENTRICITY":0.00016906,"INCLINATION":97.604,"RA_OF_ASC_NODE":70.411,"ARG_OF_PERICENTER":53.5061,"MEAN_ANOMALY":306.6319,"EPHEMERIS_TYPE":0,"CLASSIFICATION_TYPE":"U","NORAD_CAT_ID":56336,"ELEMENT_SET_NO":999,"REV_AT_EPOCH":15816,"BSTAR":-2.509918e-6,"MEAN_MOTION_DOT":-9.1e-7,"MEAN_MOTION_DDOT":0},{"OBJECT_NAME":"CZ-4B DEB","OBJECT_ID":"2017-034G","EPOCH":"2026-03-09T09:39:33.034752","MEAN_MOTION":14.99948696,"ECCENTRICITY":0.01166945,"INCLINATION":43.0793,"RA_OF_ASC_NODE":187.5221,"ARG_OF_PERICENTER":337.6416,"MEAN_ANOMALY":21.9365,"EPHEMERIS_TYPE":0,"CLASSIFICATION_TYPE":"U","NORAD_CAT_ID":43431,"ELEMENT_SET_NO":999,"REV_AT_EPOCH":46516,"BSTAR":0.0010902516,"MEAN_MOTION_DOT":0.00015701,"MEAN_MOTION_DDOT":0}]
